[Satellite]
VERSION=1.1
NAME=CZ-6A DEB
NICKNAME=CZ-6A DEB
TLE1=1 54498U 22151JA  22342.47012779  .00004059  00000+0  17344-2 0  9999
TLE2=2 54498  98.8374 347.8175 0034217 152.6165 207.6827 14.25229093  3225
STATUS=0
